STARLINK-2745_new
1 18671C 21044AK  21326.17291257  .00002179  00000-0  14601-3 0  3263
2 18671  53.0556 312.9577 0001729  72.6367 225.3776 15.06400823    18
STARLINK-2745_old
1 28671C 21044AK  21325.19947201  .00002670  00000-0  17895-3 0  3254
2 28671  53.0552 317.3276 0001682  72.7220 343.3868 15.06388394    17
